FENGYUN 1C DEB          
1 37594U 99025EKN 20034.05127740 -.00000043  00000-0  79102-6 0  9991
2 37594  98.9897  69.3767 0088345 183.2125 176.8488 14.09016318476156
FENGYUN 1C DEB          
1 37595U 99025EKP 20035.07639069  .00000523  00000-0  27344-3 0  9997
2 37595  99.0504 128.4536 0062628  99.4966  32.4738 14.17816910583599
FENGYUN 1C DEB          
1 37596U 99025EKQ 20034.38304578  .00000891  00000-0  44477-3 0  9999
2 37596  98.9656  90.9177 0028492  21.0010  40.1053 14.19293565585328
FENGYUN 1C DEB          
1 37597U 99025EKR 20030.40126194  .00001357  00000-0  34824-3 0  9998
2 37597  98.2690  93.9192 0260179 181.7296 178.3016 14.33536423302464
FENGYUN 1C DEB          
1 37598U 99025EKS 20033.34245549  .00000592  00000-0  29876-3 0  9992
2 37598  98.9273  82.2082 0011099 316.4633 103.0936 14.20118986338488
FENGYUN 1C DEB          
1 37600U 99025EKU 20034.51740761 -.00000869  00000-0 -60445-3 0  9998
2 37600  98.9201 327.4363 0439414 259.6648  95.4692 13.58326842592777
FENGYUN 1C DEB          
1 37682U 99025EKX 20029.03093426  .00000157  00000-0  19927-3 0  9995
2 37682  98.5931 243.0694 0245188 278.2211  79.1197 13.64397167485617
FENGYUN 1C DEB          
1 37685U 99025ELA 20033.14050149  .00001256  00000-0  74394-3 0  9990
2 37685  98.0253 155.2291 0214484  96.6655  27.8159 13.98203178510430
FENGYUN 1C DEB          
1 37686U 99025ELB 20034.91953420 -.00000059  00000-0 -23730-4 0  9992
2 37686  99.0586 267.1982 0401214 290.7626  77.0186 13.33466134514416
FENGYUN 1C DEB          
1 37687U 99025ELC 20034.64166399  .00000498  00000-0  38878-3 0  9997
2 37687  98.2095 358.6231 0431128 342.4546 194.5136 13.59662905540195
FENGYUN 1C DEB          
1 37688U 99025ELD 20034.42188136  .00001170  00000-0  57241-3 0  9990
2 37688  99.0417  97.3159 0053707 149.8077 210.6211 14.19177647580324
FENGYUN 1C DEB          
1 37689U 99025ELE 20033.86970749  .00000940  00000-0  46007-3 0  9999
2 37689  98.8900   0.0062 0028037 337.0408  22.9513 14.20135035555755
FENGYUN 1C DEB          
1 37690U 99025ELF 20035.00096363  .00000507  00000-0  31795-3 0  9997
2 37690  98.9355  80.9290 0044410 224.1413 253.4314 14.08543292567349
FENGYUN 1C DEB          
1 37691U 99025ELG 20033.68854599  .00000384  00000-0  10168-3 0  9997
2 37691  98.3480  11.9021 0469875 268.0558  86.6757 14.04714623552729
FENGYUN 1C DEB          
1 37692U 99025ELH 20033.51649514  .00001229  00000-0  46536-3 0  9996
2 37692  98.9039 137.5292 0009260 135.4130 282.6418 14.33063222531578
FENGYUN 1C DEB          
1 37693U 99025ELJ 20032.41013550  .00000404  00000-0  27488-3 0  9999
2 37693  98.8454  79.3054 0071069 338.5358  35.1964 14.04427708532335
FENGYUN 1C DEB          
1 37694U 99025ELK 20034.90758281  .00001255  00000-0  77622-3 0  9993
2 37694  98.2185 281.0370 0180468  68.6187 351.1841 13.99057414516770
FENGYUN 1C DEB          
1 37695U 99025ELL 20034.20130566  .00000216  00000-0  15820-3 0  9995
2 37695  98.2002  25.9310 0495869 169.0735 205.6808 13.56456274601891
FENGYUN 1C DEB          
1 37697U 99025ELN 20033.49909928  .00003704  00000-0  45836-3 0  9998
2 37697  96.5741 134.8020 0034720 285.3563 131.7067 14.82774882591328
FENGYUN 1C DEB          
1 37698U 99025ELP 20034.90212132  .00000597  00000-0  55567-3 0  9999
2 37698  97.9896 271.5599 0365574 113.0412 314.1656 13.58383602586658
FENGYUN 1C DEB          
1 37699U 99025ELQ 20035.09092916  .00000543  00000-0  41555-3 0  9990
2 37699  98.0124 138.2157 0127798 179.3216 305.7955 13.93097092520307
FENGYUN 1C DEB          
1 37701U 99025ELS 20033.70201597  .00000806  00000-0  59528-3 0  9998
2 37701  97.6440 193.7527 0314363  65.2067 351.9944 13.76328468464805
FENGYUN 1C DEB          
1 37703U 99025ELU 20034.38700528  .00000654  00000-0  29357-3 0  9991
2 37703  99.1620 230.2706 0054684  40.2444  78.8516 14.25292210572472
FENGYUN 1C DEB          
1 37704U 99025ELV 20035.05874108  .00000116  00000-0  14844-3 0  9991
2 37704  98.3721 130.8100 0254993 118.1067   4.4262 13.64548849487214
FENGYUN 1C DEB          
1 37705U 99025ELW 20033.88261059  .00001346  00000-0  17282-3 0  9991
2 37705  99.5112  86.1475 0101795  25.5599 335.0591 14.79953815228336
FENGYUN 1C DEB          
1 37706U 99025ELX 20033.98404231  .00000479  00000-0  28688-3 0  9992
2 37706  98.9702  85.3922 0052658 205.1292 275.7336 14.11194519599862
FENGYUN 1C DEB          
1 37707U 99025ELY 20034.98850142  .00000269  00000-0  82135-4 0  9995
2 37707 100.1986 291.0148 0170938  51.4619 321.4815 14.44508236551114
FENGYUN 1C DEB          
1 37708U 99025ELZ 20035.15800580  .00000439  00000-0  98158-4 0  9998
2 37708  98.3510 160.3917 0344520 107.8881 256.0185 14.30595720614218
FENGYUN 1C DEB          
1 37710U 99025EMB 20019.45897083  .00000368  00000-0  45784-3 0  9997
2 37710  99.2174 104.4530 0271418 285.0633 133.3193 13.56743365272501
FENGYUN 1C DEB          
1 37712U 99025EMD 20034.10750093  .00000092  00000-0  50465-4 0  9994
2 37712  98.6683 134.8602 0088234 157.3633 324.1708 14.30059210333389
FENGYUN 1C DEB          
1 37714U 99025EMF 20032.16546915  .00000516  00000-0  29172-3 0  9997
2 37714  98.9397 107.5177 0063329  89.7589 271.0840 14.13571020271372
FENGYUN 1C DEB          
1 37715U 99025EMG 20034.94956229  .00000060  00000-0  76564-4 0  9991
2 37715  99.1159  69.0424 0118416 192.5985 287.0030 13.92109419528480
FENGYUN 1C DEB          
1 37716U 99025EMH 20032.92452545  .00000209  00000-0  12389-3 0  9999
2 37716  98.8605  81.4840 0035129 255.6963 279.7211 14.17750875570885
FENGYUN 1C DEB          
1 37717U 99025EMJ 20033.30561521  .00000629  00000-0  16848-3 0  9998
2 37717  98.8138 207.2998 0125499 172.6914 310.3628 14.47456737582164
FENGYUN 1C DEB          
1 37719U 99025EML 20033.58976946  .00000349  00000-0  13763-3 0  9993
2 37719  99.4731 156.6343 0060953   6.2842  50.2591 14.35081934545896
FENGYUN 1C DEB          
1 37894U 99025EMT 20033.48598465  .00001595  00000-0  36957-3 0  9996
2 37894  99.0103 280.3843 0100315 203.0675 156.6000 14.53642277498848
FENGYUN 1C DEB          
1 37895U 99025EMU 20009.80434214  .00000375  00000-0  49668-3 0  9995
2 37895  99.1746  19.6737 0329094 211.2228 146.8984 13.46413518494933
FENGYUN 1C DEB          
1 37896U 99025EMV 20034.95712896  .00011386  00000-0  34249-3 0  9998
2 37896  98.6165  38.6103 0113486  62.2482 299.0208 15.28379352548998
FENGYUN 1C DEB          
1 37899U 99025EMY 20018.16943599  .00000524  00000-0  53644-3 0  9994
2 37899  98.8101   6.6250 0229491 307.7697  50.2859 13.69827293500251
FENGYUN 1C DEB          
1 37900U 99025EMZ 20032.36780283  .00000537  00000-0  40090-3 0  9999
2 37900 102.3156 103.2815 0248021 346.3826  13.0711 13.87850928300072
FENGYUN 1C DEB          
1 37901U 99025ENA 20033.05934126  .00002772  00000-0  39521-3 0  9994
2 37901  97.9125 121.2436 0126089 161.4781 199.1078 14.72227923541541
FENGYUN 1C DEB          
1 37902U 99025ENB 20034.25067289  .00000520  00000-0  68433-3 0  9998
2 37902  98.6992 144.9742 0338087   9.1886 351.5231 13.43758275341775
FENGYUN 1C DEB          
1 37903U 99025ENC 20035.03176023  .00001765  00000-0  96431-3 0  9994
2 37903  98.1829 144.1292 0341451 212.6062 145.3600 13.87358631612453
FENGYUN 1C DEB          
1 37904U 99025END 20033.76000509  .00000941  00000-0  31406-3 0  9994
2 37904  98.2400 217.5144 0079499 245.6641 113.6232 14.37955918504647
FENGYUN 1C DEB          
1 37905U 99025ENE 20033.35279551  .00000348  00000-0  30810-3 0  9994
2 37905  99.3468  77.1015 0136098  65.1424 296.3813 13.87614217470592
FENGYUN 1C DEB          
1 37906U 99025ENF 20033.72213028 -.00000110  00000-0 -56862-4 0  9998
2 37906  99.6024   8.7875 0166280 219.9229 316.5608 13.77837234299632
FENGYUN 1C DEB          
1 37907U 99025ENG 20032.44563902  .00000957  00000-0  61066-3 0  9994
2 37907  99.1272  94.1317 0078231  67.3106 293.6308 14.04511545530882
FENGYUN 1C DEB          
1 37908U 99025ENH 20033.48794259  .00000110  00000-0  60206-4 0  9998
2 37908  99.0754 292.5999 0081608 246.6480 112.6100 14.29291733484098
FENGYUN 1C DEB          
1 37909U 99025ENJ 20033.00371677  .00000351  00000-0  34408-3 0  9993
2 37909  98.9273 109.9751 0208056 162.6971 198.1411 13.75969471522616
FENGYUN 1C DEB          
1 37911U 99025ENL 20033.90836448  .00000515  00000-0  43582-3 0  9992
2 37911  99.4041  74.8403 0156821 103.4268 258.4420 13.86681017469772
FENGYUN 1C DEB          
1 37912U 99025ENM 20033.74312604  .00000656  00000-0  49013-3 0  9999
2 37912  99.1424 326.0381 0113717 183.0069 206.2003 13.95315487473365
FENGYUN 1C DEB          
1 37913U 99025ENN 20034.51189906  .00001949  00000-0  41238-3 0  9990
2 37913  98.9113 237.2689 0139544 137.9300 223.2711 14.54642113486986
FENGYUN 1C DEB          
1 37914U 99025ENP 20035.04407313  .00000363  00000-0  24075-3 0  9994
2 37914  99.0258 334.8020 0076030 215.4610 144.1490 14.06383252580408
FENGYUN 1C DEB          
1 37915U 99025ENQ 20033.34960343  .00000528  00000-0  42157-3 0  9997
2 37915  98.2791 226.8062 0221469  77.9898 284.5988 13.83596845571000
FENGYUN 1C DEB          
1 37917U 99025ENS 20034.95011262  .00000505  00000-0  33086-3 0  9990
2 37917  98.9759 123.7010 0050037 293.0906  66.4992 14.06173582587502
FENGYUN 1C DEB          
1 37918U 99025ENT 20033.53098191  .00000217  00000-0  10746-3 0  9998
2 37918  99.1181 240.5693 0062241   0.7576 359.3686 14.26694823729810
FENGYUN 1C DEB          
1 37919U 99025ENU 20033.33166836  .00000130  00000-0  79566-4 0  9999
2 37919  99.1817 235.7895 0052308  28.1145 332.2839 14.21979362520386
FENGYUN 1C DEB          
1 37920U 99025ENV 20032.10703951  .00000428  00000-0  26157-3 0  9997
2 37920  98.9868  82.3360 0068200 181.6096 207.8771 14.10131606338582
FENGYUN 1C DEB          
1 37921U 99025ENW 20033.81685540 -.00000028  00000-0  12665-4 0  9997
2 37921  99.2958  64.7288 0084998 165.9090 194.4470 13.93884480528685
